ONEWEB-0657             
1 55818U 23029Y   25214.49081118  .00000037  00000+0  59710-4 0  9994
2 55818  87.9236   8.3439 0001093 103.5229 256.6025 13.19727124116872
ONEWEB-0658             
1 55819U 23029Z   25214.86515325  .00000036  00000+0  57478-4 0  9996
2 55819  87.9244   8.2035 0001927  79.5941 280.5409 13.19723860117610
ONEWEB-0660             
1 55820U 23029AA  25214.42149223 -.00000182  00000+0 -52487-3 0  9998
2 55820  87.9069 353.1140 0002161  93.9787 266.1590 13.14502101117524
ONEWEB-0661             
1 55821U 23029AB  25214.45638226  .00000289  00000+0  74578-3 0  9999
2 55821  87.9071 353.1786 0002195  96.1397 263.9983 13.14501752117514
ONEWEB-0662             
1 55822U 23029AC  25214.41514531 -.00000178  00000+0 -51592-3 0  9998
2 55822  87.9071 353.1934 0002149  91.4553 268.6823 13.14502110117559
ONEWEB-0663             
1 55823U 23029AD  25214.39818392 -.00000034  00000+0 -11538-3 0  9995
2 55823  87.9305 337.9915 0002217  88.3205 271.8182 13.20841770119061
ONEWEB-0664             
1 55824U 23029AE  25214.40689377 -.00000151  00000+0 -40402-3 0  9999
2 55824  87.9300 338.0117 0002286 104.6975 255.4412 13.20771906119062
ONEWEB-0665             
1 55825U 23029AF  25214.37709383  .00000310  00000+0  80203-3 0  9994
2 55825  87.9074 353.1688 0002043  91.7280 268.4084 13.14504257117522
ONEWEB-0666             
1 55826U 23029AG  25214.32481500  .00000081  00000+0  16819-3 0  9995
2 55826  87.9297 338.0158 0001174 108.1666 251.9595 13.20774435119068
ONEWEB-0667             
1 55827U 23029AH  25214.62154081 -.00000180  00000+0 -47560-3 0  9999
2 55827  87.9292 337.8869 0002192  97.9173 262.2209 13.20771315119093
ONEWEB-0669             
1 55828U 23029AJ  25214.38953328  .00000065  00000+0  12803-3 0  9996
2 55828  87.9296 337.9707 0002049 117.6417 242.4924 13.20771447119069
ONEWEB-0670             
1 55829U 23029AK  25214.43100030 -.00000013  00000+0 -70273-4 0  9998
2 55829  87.9075 353.1776 0002254  99.5513 260.5871 13.14504806117554
ONEWEB-0671             
1 55830U 23029AL  25214.48133852  .00000033  00000+0  49392-4 0  9991
2 55830  87.9235   8.3382 0002062  93.8297 266.3072 13.19726127116866
ONEWEB-0672             
1 55831U 23029AM  25214.38478171 -.00000114  00000+0 -31208-3 0  9995
2 55831  87.9294 337.9575 0001700 106.6204 253.5117 13.20771243119060
ONEWEB-0673             
1 55832U 23029AN  25214.45764818  .00000085  00000+0  17883-3 0  9998
2 55832  87.9241   8.3064 0001875  87.5719 272.5628 13.19725495116865
ONEWEB-0674             
1 55833U 23029AP  25214.47542023  .00000029  00000+0  43710-4 0  9990
2 55833  87.9073 353.1533 0002333 101.6969 258.4422 13.14502451117547
ONEWEB-0675             
1 55834U 23029AQ  25214.47344779  .00000174  00000+0  40304-3 0  9995
2 55834  87.9234   8.3510 0001503  91.4541 268.6764 13.19726196116888
