[{"OBJECT_NAME":"ONEWEB-0657","OBJECT_ID":"2023-029Y","EPOCH":"2025-08-02T11:46:46.085952","MEAN_MOTION":13.19727124,"ECCENTRICITY":0.0001093,"INCLINATION":87.9236,"RA_OF_ASC_NODE":8.3439,"ARG_OF_PERICENTER":103.5229,"MEAN_ANOMALY":256.6025,"EPHEMERIS_TYPE":0,"CLASSIFICATION_TYPE":"U","NORAD_CAT_ID":55818,"ELEMENT_SET_NO":999,"REV_AT_EPOCH":11687,"BSTAR":5.971e-5,"MEAN_MOTION_DOT":3.7e-7,"MEAN_MOTION_DDOT":0},{"OBJECT_NAME":"ONEWEB-0658","OBJECT_ID":"2023-029Z","EPOCH":"2025-08-02T20:45:49.240800","MEAN_MOTION":13.1972386,"ECCENTRICITY":0.0001927,"INCLINATION":87.9244,"RA_OF_ASC_NODE":8.2035,"ARG_OF_PERICENTER":79.5941,"MEAN_ANOMALY":280.5409,"EPHEMERIS_TYPE":0,"CLASSIFICATION_TYPE":"U","NORAD_CAT_ID":55819,"ELEMENT_SET_NO":999,"REV_AT_EPOCH":11761,"BSTAR":5.7478e-5,"MEAN_MOTION_DOT":3.6e-7,"MEAN_MOTION_DDOT":0},{"OBJECT_NAME":"ONEWEB-0660","OBJECT_ID":"2023-029AA","EPOCH":"2025-08-02T10:06:56.928672","MEAN_MOTION":13.14502101,"ECCENTRICITY":0.0002161,"INCLINATION":87.9069,"RA_OF_ASC_NODE":353.114,"ARG_OF_PERICENTER":93.9787,"MEAN_ANOMALY":266.159,"EPHEMERIS_TYPE":0,"CLASSIFICATION_TYPE":"U","NORAD_CAT_ID":55820,"ELEMENT_SET_NO":999,"REV_AT_EPOCH":11752,"BSTAR":-0.00052487,"MEAN_MOTION_DOT":-1.82e-6,"MEAN_MOTION_DDOT":0},{"OBJECT_NAME":"ONEWEB-0661","OBJECT_ID":"2023-029AB","EPOCH":"2025-08-02T10:57:11.427264","MEAN_MOTION":13.14501752,"ECCENTRICITY":0.0002195,"INCLINATION":87.9071,"RA_OF_ASC_NODE":353.1786,"ARG_OF_PERICENTER":96.1397,"MEAN_ANOMALY":263.9983,"EPHEMERIS_TYPE":0,"CLASSIFICATION_TYPE":"U","NORAD_CAT_ID":55821,"ELEMENT_SET_NO":999,"REV_AT_EPOCH":11751,"BSTAR":0.00074578,"MEAN_MOTION_DOT":2.89e-6,"MEAN_MOTION_DDOT":0},{"OBJECT_NAME":"ONEWEB-0662","OBJECT_ID":"2023-029AC","EPOCH":"2025-08-02T09:57:48.554784","MEAN_MOTION":13.1450211,"ECCENTRICITY":0.0002149,"INCLINATION":87.9071,"RA_OF_ASC_NODE":353.1934,"ARG_OF_PERICENTER":91.4553,"MEAN_ANOMALY":268.6823,"EPHEMERIS_TYPE":0,"CLASSIFICATION_TYPE":"U","NORAD_CAT_ID":55822,"ELEMENT_SET_NO":999,"REV_AT_EPOCH":11755,"BSTAR":-0.00051592,"MEAN_MOTION_DOT":-1.78e-6,"MEAN_MOTION_DDOT":0},{"OBJECT_NAME":"ONEWEB-0663","OBJECT_ID":"2023-029AD","EPOCH":"2025-08-02T09:33:23.090688","MEAN_MOTION":13.2084177,"ECCENTRICITY":0.0002217,"INCLINATION":87.9305,"RA_OF_ASC_NODE":337.9915,"ARG_OF_PERICENTER":88.3205,"MEAN_ANOMALY":271.8182,"EPHEMERIS_TYPE":0,"CLASSIFICATION_TYPE":"U","NORAD_CAT_ID":55823,"ELEMENT_SET_NO":999,"REV_AT_EPOCH":11906,"BSTAR":-0.00011538,"MEAN_MOTION_DOT":-3.4e-7,"MEAN_MOTION_DDOT":0},{"OBJECT_NAME":"ONEWEB-0664","OBJECT_ID":"2023-029AE","EPOCH":"2025-08-02T09:45:55.621728","MEAN_MOTION":13.20771906,"ECCENTRICITY":0.0002286,"INCLINATION":87.93,"RA_OF_ASC_NODE":338.0117,"ARG_OF_PERICENTER":104.6975,"MEAN_ANOMALY":255.4412,"EPHEMERIS_TYPE":0,"CLASSIFICATION_TYPE":"U","NORAD_CAT_ID":55824,"ELEMENT_SET_NO":999,"REV_AT_EPOCH":11906,"BSTAR":-0.00040402,"MEAN_MOTION_DOT":-1.51e-6,"MEAN_MOTION_DDOT":0},{"OBJECT_NAME":"ONEWEB-0665","OBJECT_ID":"2023-029AF","EPOCH":"2025-08-02T09:03:00.906912","MEAN_MOTION":13.14504257,"ECCENTRICITY":0.0002043,"INCLINATION":87.9074,"RA_OF_ASC_NODE":353.1688,"ARG_OF_PERICENTER":91.728,"MEAN_ANOMALY":268.4084,"EPHEMERIS_TYPE":0,"CLASSIFICATION_TYPE":"U","NORAD_CAT_ID":55825,"ELEMENT_SET_NO":999,"REV_AT_EPOCH":11752,"BSTAR":0.00080203,"MEAN_MOTION_DOT":3.1e-6,"MEAN_MOTION_DDOT":0},{"OBJECT_NAME":"ONEWEB-0666","OBJECT_ID":"2023-029AG","EPOCH":"2025-08-02T07:47:44.016000","MEAN_MOTION":13.20774435,"ECCENTRICITY":0.0001174,"INCLINATION":87.9297,"RA_OF_ASC_NODE":338.0158,"ARG_OF_PERICENTER":108.1666,"MEAN_ANOMALY":251.9595,"EPHEMERIS_TYPE":0,"CLASSIFICATION_TYPE":"U","NORAD_CAT_ID":55826,"ELEMENT_SET_NO":999,"REV_AT_EPOCH":11906,"BSTAR":0.00016819,"MEAN_MOTION_DOT":8.1e-7,"MEAN_MOTION_DDOT":0},{"OBJECT_NAME":"ONEWEB-0667","OBJECT_ID":"2023-029AH","EPOCH":"2025-08-02T14:55:01.125984","MEAN_MOTION":13.20771315,"ECCENTRICITY":0.0002192,"INCLINATION":87.9292,"RA_OF_ASC_NODE":337.8869,"ARG_OF_PERICENTER":97.9173,"MEAN_ANOMALY":262.2209,"EPHEMERIS_TYPE":0,"CLASSIFICATION_TYPE":"U","NORAD_CAT_ID":55827,"ELEMENT_SET_NO":999,"REV_AT_EPOCH":11909,"BSTAR":-0.0004756,"MEAN_MOTION_DOT":-1.8e-6,"MEAN_MOTION_DDOT":0},{"OBJECT_NAME":"ONEWEB-0669","OBJECT_ID":"2023-029AJ","EPOCH":"2025-08-02T09:20:55.675392","MEAN_MOTION":13.20771447,"ECCENTRICITY":0.0002049,"INCLINATION":87.9296,"RA_OF_ASC_NODE":337.9707,"ARG_OF_PERICENTER":117.6417,"MEAN_ANOMALY":242.4924,"EPHEMERIS_TYPE":0,"CLASSIFICATION_TYPE":"U","NORAD_CAT_ID":55828,"ELEMENT_SET_NO":999,"REV_AT_EPOCH":11906,"BSTAR":0.00012803,"MEAN_MOTION_DOT":6.5e-7,"MEAN_MOTION_DDOT":0},{"OBJECT_NAME":"ONEWEB-0670","OBJECT_ID":"2023-029AK","EPOCH":"2025-08-02T10:20:38.425920","MEAN_MOTION":13.14504806,"ECCENTRICITY":0.0002254,"INCLINATION":87.9075,"RA_OF_ASC_NODE":353.1776,"ARG_OF_PERICENTER":99.5513,"MEAN_ANOMALY":260.5871,"EPHEMERIS_TYPE":0,"CLASSIFICATION_TYPE":"U","NORAD_CAT_ID":55829,"ELEMENT_SET_NO":999,"REV_AT_EPOCH":11755,"BSTAR":-7.0273e-5,"MEAN_MOTION_DOT":-1.3e-7,"MEAN_MOTION_DDOT":0},{"OBJECT_NAME":"ONEWEB-0671","OBJECT_ID":"2023-029AL","EPOCH":"2025-08-02T11:33:07.648128","MEAN_MOTION":13.19726127,"ECCENTRICITY":0.0002062,"INCLINATION":87.9235,"RA_OF_ASC_NODE":8.3382,"ARG_OF_PERICENTER":93.8297,"MEAN_ANOMALY":266.3072,"EPHEMERIS_TYPE":0,"CLASSIFICATION_TYPE":"U","NORAD_CAT_ID":55830,"ELEMENT_SET_NO":999,"REV_AT_EPOCH":11686,"BSTAR":4.9392e-5,"MEAN_MOTION_DOT":3.3e-7,"MEAN_MOTION_DDOT":0},{"OBJECT_NAME":"ONEWEB-0672","OBJECT_ID":"2023-029AM","EPOCH":"2025-08-02T09:14:05.139744","MEAN_MOTION":13.20771243,"ECCENTRICITY":0.00017,"INCLINATION":87.9294,"RA_OF_ASC_NODE":337.9575,"ARG_OF_PERICENTER":106.6204,"MEAN_ANOMALY":253.5117,"EPHEMERIS_TYPE":0,"CLASSIFICATION_TYPE":"U","NORAD_CAT_ID":55831,"ELEMENT_SET_NO":999,"REV_AT_EPOCH":11906,"BSTAR":-0.00031208,"MEAN_MOTION_DOT":-1.14e-6,"MEAN_MOTION_DDOT":0},{"OBJECT_NAME":"ONEWEB-0673","OBJECT_ID":"2023-029AN","EPOCH":"2025-08-02T10:59:00.802752","MEAN_MOTION":13.19725495,"ECCENTRICITY":0.0001875,"INCLINATION":87.9241,"RA_OF_ASC_NODE":8.3064,"ARG_OF_PERICENTER":87.5719,"MEAN_ANOMALY":272.5628,"EPHEMERIS_TYPE":0,"CLASSIFICATION_TYPE":"U","NORAD_CAT_ID":55832,"ELEMENT_SET_NO":999,"REV_AT_EPOCH":11686,"BSTAR":0.00017883,"MEAN_MOTION_DOT":8.5e-7,"MEAN_MOTION_DDOT":0},{"OBJECT_NAME":"ONEWEB-0674","OBJECT_ID":"2023-029AP","EPOCH":"2025-08-02T11:24:36.307872","MEAN_MOTION":13.14502451,"ECCENTRICITY":0.0002333,"INCLINATION":87.9073,"RA_OF_ASC_NODE":353.1533,"ARG_OF_PERICENTER":101.6969,"MEAN_ANOMALY":258.4422,"EPHEMERIS_TYPE":0,"CLASSIFICATION_TYPE":"U","NORAD_CAT_ID":55833,"ELEMENT_SET_NO":999,"REV_AT_EPOCH":11754,"BSTAR":4.371e-5,"MEAN_MOTION_DOT":2.9e-7,"MEAN_MOTION_DDOT":0},{"OBJECT_NAME":"ONEWEB-0675","OBJECT_ID":"2023-029AQ","EPOCH":"2025-08-02T11:21:45.889056","MEAN_MOTION":13.19726196,"ECCENTRICITY":0.0001503,"INCLINATION":87.9234,"RA_OF_ASC_NODE":8.351,"ARG_OF_PERICENTER":91.4541,"MEAN_ANOMALY":268.6764,"EPHEMERIS_TYPE":0,"CLASSIFICATION_TYPE":"U","NORAD_CAT_ID":55834,"ELEMENT_SET_NO":999,"REV_AT_EPOCH":11688,"BSTAR":0.00040304,"MEAN_MOTION_DOT":1.74e-6,"MEAN_MOTION_DDOT":0}]
